IRIDIUM 144             
1 43249U 18030A   25266.92415885  .00000135  00000+0  41212-4 0  9999
2 43249  86.3975  41.6927 0002140  90.8390 269.3051 14.34218465391970
IRIDIUM 149             
1 43250U 18030B   25267.13980500  .00000318  00000+0  10664-3 0  9995
2 43250  86.3973  41.5724 0002108  89.2926 270.8512 14.34217987392029
IRIDIUM 157             
1 43251U 18030C   25266.87975918  .00000121  00000+0  36148-4 0  9991
2 43251  86.3975  41.7286 0001905  95.0240 265.1173 14.34218694391963
IRIDIUM 140             
1 43252U 18030D   25266.89878871  .00000124  00000+0  37206-4 0  9993
2 43252  86.3973  41.7337 0002247  90.5503 269.5950 14.34218493392027
IRIDIUM 145             
1 43253U 18030E   25266.81632989  .00000514  00000+0  17656-3 0  9993
2 43253  86.3973  41.7410 0002275  82.6851 277.4604 14.34222065391943
IRIDIUM 146             
1 43254U 18030F   25267.07638155  .00000023  00000+0  12991-5 0  9998
2 43254  86.3974  41.6454 0002233  85.1164 275.0286 14.34218001391991
IRIDIUM 148             
1 43255U 18030G   25267.32374119  .00000190  00000+0  60704-4 0  9993
2 43255  86.3976  41.5811 0001964  90.4648 269.6772 14.34218872392060
IRIDIUM 142             
1 43256U 18030H   25267.08272413  .00000102  00000+0  29364-4 0  9991
2 43256  86.3970  41.5804 0002275  80.9454 279.1999 14.34218282391995
